{"type":"FeatureCollection","features":[{"type":"Feature","properties":{"nombre":"Circuito 14","id":1},"geometry":{"type":"MultiPolygon","coordinates":[[[[-65.191933,-26.810676],[-65.189189,-26.811151],[-65.18513,-26.811896],[-65.177589,-26.813354],[-65.171586,-26.814425],[-65.158214,-26.816752],[-65.158721,-26.817264],[-65.159673,-26.817492],[-65.160434,-26.818118],[-65.160878,-26.819086],[-65.161005,-26.81994],[-65.160815,-26.820452],[-65.160942,-26.820907],[-65.161386,-26.821477],[-65.162147,-26.822331],[-65.162782,-26.822843],[-65.163606,-26.823412],[-65.164089,-26.823944],[-65.169736,-26.823783],[-65.173332,-26.823827],[-65.173741,-26.823761],[-65.174545,-26.823592],[-65.178,-26.822805],[-65.179441,-26.822552],[-65.18089,-26.822282],[-65.182328,-26.822021],[-65.183796,-26.821763],[-65.185231,-26.82151],[-65.18672,-26.821237],[-65.188194,-26.82097],[-65.189624,-26.820766],[-65.192652,-26.820342],[-65.194212,-26.820126],[-65.193836,-26.818722],[-65.193505,-26.8173],[-65.193162,-26.815927],[-65.192848,-26.814576],[-65.192533,-26.813216],[-65.19226,-26.812022],[-65.191933,-26.810676]]]]}},{"type":"Feature","properties":{"nombre":"Circuito 14 D","id":2},"geometry":{"type":"MultiPolygon","coordinates":[[[[-65.191934,-26.810676],[-65.190957,-26.806608],[-65.177354,-26.809297],[-65.162633,-26.812198],[-65.158014,-26.812811],[-65.157655,-26.814022],[-65.157628,-26.814967],[-65.157961,-26.815556],[-65.158214,-26.816757],[-65.174126,-26.813969],[-65.183863,-26.812142],[-65.18727,-26.811496],[-65.191934,-26.810676]]]]}},{"type":"Feature","properties":{"nombre":"Circuito 14C","id":3},"geometry":{"type":"MultiPolygon","coordinates":[[[[-65.190959,-26.806611],[-65.188799,-26.79768],[-65.158744,-26.80375],[-65.158319,-26.804974],[-65.158319,-26.806731],[-65.158478,-26.808009],[-65.158106,-26.810085],[-65.157999,-26.812807],[-65.162644,-26.812202],[-65.190959,-26.806611]]]]}},{"type":"Feature","properties":{"nombre":"Circuito 14B","id":4},"geometry":{"type":"MultiPolygon","coordinates":[[[[-65.180804,-26.7993],[-65.179207,-26.792951],[-65.178222,-26.792711],[-65.176678,-26.791593],[-65.174894,-26.790209],[-65.172871,-26.789304],[-65.170715,-26.789171],[-65.168532,-26.789756],[-65.166775,-26.791008],[-65.164565,-26.793217],[-65.162861,-26.79508],[-65.161477,-26.796811],[-65.160758,-26.798621],[-65.160865,-26.801177],[-65.158735,-26.803752],[-65.180804,-26.7993]]]]}},{"type":"Feature","properties":{"nombre":"Circuito 14A","id":5},"geometry":{"type":"MultiPolygon","coordinates":[[[[-65.188201,-26.795387],[-65.186963,-26.795333],[-65.185699,-26.794854],[-65.184847,-26.794189],[-65.183968,-26.793071],[-65.183263,-26.792205],[-65.182304,-26.792006],[-65.18128,-26.792259],[-65.180481,-26.792605],[-65.179656,-26.793004],[-65.179208,-26.792952],[-65.180804,-26.799301],[-65.1888,-26.797663],[-65.188255,-26.795389],[-65.188201,-26.795387]]]]}},{"type":"Feature","properties":{"nombre":"Circuito 11A","id":6},"geometry":{"type":"MultiPolygon","coordinates":[[[[-65.194706,-26.832962],[-65.191737,-26.820477],[-65.18813,-26.82097],[-65.182893,-26.821928],[-65.180444,-26.822354],[-65.178034,-26.822807],[-65.173469,-26.823832],[-65.169805,-26.823782],[-65.164095,-26.823968],[-65.164361,-26.825272],[-65.164854,-26.825951],[-65.165479,-26.826484],[-65.166185,-26.827695],[-65.168181,-26.829758],[-65.168421,-26.830503],[-65.168887,-26.830903],[-65.16922,-26.831368],[-65.169992,-26.831941],[-65.170431,-26.832367],[-65.171083,-26.833698],[-65.171629,-26.834177],[-65.172294,-26.835189],[-65.172614,-26.835974],[-65.172813,-26.836187],[-65.172973,-26.836879],[-65.173013,-26.837331],[-65.194706,-26.832956],[-65.194706,-26.832962]]]]}},{"type":"Feature","properties":{"nombre":"Circuito 11","id":7},"geometry":{"type":"MultiPolygon","coordinates":[[[[-65.194213,-26.820125],[-65.191737,-26.820472],[-65.194725,-26.832977],[-65.197141,-26.832477],[-65.19581,-26.826859],[-65.194213,-26.820125]]]]}},{"type":"Feature","properties":{"nombre":"Circuito 10","id":8},"geometry":{"type":"MultiPolygon","coordinates":[[[[-65.200377,-26.844812],[-65.200085,-26.844486],[-65.198551,-26.83822],[-65.197141,-26.832477],[-65.173019,-26.837334],[-65.17647,-26.840372],[-65.179984,-26.848332],[-65.181048,-26.851047],[-65.182992,-26.850448],[-65.183591,-26.849809],[-65.18407,-26.849583],[-65.184589,-26.84961],[-65.200115,-26.845091],[-65.200375,-26.844805],[-65.200377,-26.844812]]]]}},{"type":"Feature","properties":{"nombre":"Circuito 10A","id":9},"geometry":{"type":"MultiPolygon","coordinates":[[[[-65.200389,-26.84482],[-65.200112,-26.84509],[-65.184621,-26.849597],[-65.184089,-26.849575],[-65.183663,-26.849732],[-65.183041,-26.850376],[-65.181048,-26.851044],[-65.186989,-26.862421],[-65.186999,-26.8624],[-65.192997,-26.860857],[-65.196373,-26.860053],[-65.200608,-26.859035],[-65.200229,-26.857611],[-65.19983,-26.856543],[-65.198525,-26.85181],[-65.200489,-26.849015],[-65.199652,-26.845237],[-65.200389,-26.84482]]]]}},{"type":"Feature","properties":{"nombre":"Circuito 9","id":10},"geometry":{"type":"MultiPolygon","coordinates":[[[[-65.200646,-26.844953],[-65.199655,-26.845227],[-65.200489,-26.848975],[-65.198551,-26.85181],[-65.199869,-26.85653],[-65.2048,-26.855356],[-65.207253,-26.85504],[-65.210364,-26.854301],[-65.213462,-26.853642],[-65.210786,-26.842542],[-65.200527,-26.844584],[-65.200646,-26.844953]]]]}},{"type":"Feature","properties":{"nombre":"Circuito 9A","id":11},"geometry":{"type":"MultiPolygon","coordinates":[[[[-65.210788,-26.842541],[-65.213465,-26.853632],[-65.216821,-26.852802],[-65.218963,-26.852314],[-65.221237,-26.851866],[-65.224138,-26.851365],[-65.221516,-26.840461],[-65.210788,-26.842541]]]]}},{"type":"Feature","properties":{"nombre":"Circuito 20","id":12},"geometry":{"type":"MultiPolygon","coordinates":[[[[-65.233005,-26.863843],[-65.231466,-26.861514],[-65.230677,-26.860786],[-65.225581,-26.857146],[-65.22415,-26.851356],[-65.221152,-26.851904],[-65.218924,-26.852325],[-65.216616,-26.85284],[-65.207203,-26.855107],[-65.204896,-26.855331],[-65.19984,-26.856559],[-65.200229,-26.857596],[-65.200608,-26.859032],[-65.186978,-26.862374],[-65.191889,-26.864614],[-65.193375,-26.866616],[-65.195559,-26.868588],[-65.195711,-26.870105],[-65.196045,-26.871167],[-65.201763,-26.869953],[-65.211,-26.8683],[-65.221161,-26.86653],[-65.220987,-26.865689],[-65.229758,-26.864345],[-65.232971,-26.863852],[-65.233005,-26.863843]]]]}},{"type":"Feature","properties":{"nombre":"Circuito 21","id":13},"geometry":{"type":"MultiPolygon","coordinates":[[[[-65.241021,-26.874583],[-65.236564,-26.868518],[-65.234039,-26.865454],[-65.233,-26.863844],[-65.220961,-26.865658],[-65.221155,-26.866535],[-65.202421,-26.86983],[-65.19602,-26.871165],[-65.197127,-26.873804],[-65.197977,-26.87523],[-65.198432,-26.87705],[-65.198432,-26.879053],[-65.198796,-26.881024],[-65.199463,-26.882693],[-65.213918,-26.879856],[-65.230071,-26.876771],[-65.233057,-26.876376],[-65.234323,-26.875796],[-65.234824,-26.875216],[-65.234903,-26.874003],[-65.235773,-26.874873],[-65.237092,-26.875216],[-65.238542,-26.875137],[-65.241021,-26.874583]]]]}},{"type":"Feature","properties":{"nombre":"Circuito 22","id":14},"geometry":{"type":"MultiPolygon","coordinates":[[[[-65.230111,-26.876823],[-65.199448,-26.882693],[-65.202163,-26.886644],[-65.203498,-26.892348],[-65.206653,-26.898415],[-65.20641,-26.902541],[-65.207381,-26.904482],[-65.205439,-26.906909],[-65.206168,-26.909821],[-65.210293,-26.9097],[-65.215754,-26.907273],[-65.222671,-26.900356],[-65.228738,-26.89077],[-65.230315,-26.888161],[-65.230111,-26.876811],[-65.230111,-26.876823]]]]}},{"type":"Feature","properties":{"nombre":"Circuito 3","id":15},"geometry":{"type":"MultiPolygon","coordinates":[[[[-65.210786,-26.84254],[-65.209063,-26.835679],[-65.198552,-26.83822],[-65.200099,-26.844494],[-65.200365,-26.844608],[-65.200594,-26.844575],[-65.210786,-26.84254]]]]}},{"type":"Feature","properties":{"nombre":"Circuito 4","id":16},"geometry":{"type":"MultiPolygon","coordinates":[[[[-65.219924,-26.833457],[-65.210661,-26.835338],[-65.209043,-26.835702],[-65.21079,-26.842544],[-65.221542,-26.840434],[-65.219924,-26.833457]]]]}},{"type":"Feature","properties":{"nombre":"Circuito 1A","id":17},"geometry":{"type":"MultiPolygon","coordinates":[[[[-65.209051,-26.835679],[-65.207822,-26.83038],[-65.206305,-26.830638],[-65.202387,-26.831381],[-65.20181,-26.831553],[-65.197139,-26.832478],[-65.198539,-26.838232],[-65.209051,-26.835679]]]]}},{"type":"Feature","properties":{"nombre":"Circuito 2A","id":18},"geometry":{"type":"MultiPolygon","coordinates":[[[[-65.219929,-26.833458],[-65.21867,-26.828187],[-65.215586,-26.828971],[-65.20782,-26.830379],[-65.209058,-26.835698],[-65.219929,-26.833458]]]]}},{"type":"Feature","properties":{"nombre":"Circuito 1","id":19},"geometry":{"type":"MultiPolygon","coordinates":[[[[-65.207845,-26.830394],[-65.206402,-26.824917],[-65.200483,-26.826208],[-65.195811,-26.826835],[-65.197207,-26.832417],[-65.201949,-26.831517],[-65.202394,-26.831385],[-65.207845,-26.830394]]]]}},{"type":"Feature","properties":{"nombre":"Circuito 2","id":20},"geometry":{"type":"MultiPolygon","coordinates":[[[[-65.21866,-26.828169],[-65.217123,-26.822608],[-65.206402,-26.824918],[-65.20786,-26.830374],[-65.215667,-26.828958],[-65.21866,-26.828169]]]]}},{"type":"Feature","properties":{"nombre":"Circuito 5","id":21},"geometry":{"type":"MultiPolygon","coordinates":[[[[-65.206401,-26.824917],[-65.204649,-26.81809],[-65.194214,-26.820125],[-65.195796,-26.826845],[-65.200549,-26.826198],[-65.206401,-26.824917]]]]}},{"type":"Feature","properties":{"nombre":"Circuito 6","id":22},"geometry":{"type":"MultiPolygon","coordinates":[[[[-65.217143,-26.822608],[-65.215428,-26.816019],[-65.204652,-26.818094],[-65.206403,-26.824917],[-65.217143,-26.822608]]]]}},{"type":"Feature","properties":{"nombre":"Circuito 12","id":23},"geometry":{"type":"MultiPolygon","coordinates":[[[[-65.204811,-26.818064],[-65.2029,-26.810055],[-65.202468,-26.810142],[-65.201281,-26.804522],[-65.191029,-26.806471],[-65.190947,-26.806612],[-65.194214,-26.820125],[-65.204811,-26.818064]]]]}},{"type":"Feature","properties":{"nombre":"Circuito 13","id":24},"geometry":{"type":"MultiPolygon","coordinates":[[[[-65.215428,-26.816018],[-65.215494,-26.815832],[-65.212194,-26.802368],[-65.201266,-26.80453],[-65.202479,-26.810142],[-65.202904,-26.810059],[-65.204807,-26.818062],[-65.215428,-26.816018]]]]}},{"type":"Feature","properties":{"nombre":"Circuito 12A","id":25},"geometry":{"type":"MultiPolygon","coordinates":[[[[-65.201273,-26.804521],[-65.20045,-26.800423],[-65.200636,-26.800214],[-65.198976,-26.792184],[-65.198673,-26.792214],[-65.19747,-26.79272],[-65.195548,-26.793681],[-65.188268,-26.795359],[-65.190955,-26.806598],[-65.191028,-26.806473],[-65.201273,-26.804521]]]]}},{"type":"Feature","properties":{"nombre":"Circuito 13A","id":26},"geometry":{"type":"MultiPolygon","coordinates":[[[[-65.212203,-26.802387],[-65.210575,-26.795531],[-65.210858,-26.794763],[-65.210464,-26.792851],[-65.210332,-26.792113],[-65.210879,-26.791304],[-65.198974,-26.792187],[-65.200636,-26.800213],[-65.200452,-26.800421],[-65.201273,-26.804522],[-65.212203,-26.802387]]]]}},{"type":"Feature","properties":{"nombre":"Circuito 15A","id":27},"geometry":{"type":"MultiPolygon","coordinates":[[[[-65.225357,-26.799804],[-65.222363,-26.78866],[-65.220624,-26.787588],[-65.219148,-26.786779],[-65.217934,-26.786617],[-65.216923,-26.78686],[-65.216094,-26.787527],[-65.215325,-26.788539],[-65.214638,-26.789853],[-65.21397,-26.790743],[-65.212615,-26.791289],[-65.210861,-26.791309],[-65.210335,-26.792118],[-65.210851,-26.794823],[-65.210568,-26.795531],[-65.212206,-26.802397],[-65.225357,-26.799804]]]]}},{"type":"Feature","properties":{"nombre":"Circuito 15","id":28},"geometry":{"type":"MultiPolygon","coordinates":[[[[-65.225362,-26.799799],[-65.212175,-26.802428],[-65.215497,-26.815831],[-65.227614,-26.813482],[-65.229214,-26.813167],[-65.227819,-26.808798],[-65.225362,-26.799799]]]]}},{"type":"Feature","properties":{"nombre":"Circuito 7A","id":29},"geometry":{"type":"MultiPolygon","coordinates":[[[[-65.229214,-26.813167],[-65.227622,-26.813481],[-65.225206,-26.813952],[-65.222549,-26.814459],[-65.218886,-26.815176],[-65.216903,-26.815568],[-65.215497,-26.815831],[-65.215428,-26.816019],[-65.21714,-26.822612],[-65.223066,-26.821176],[-65.224886,-26.820933],[-65.228032,-26.82032],[-65.228113,-26.819997],[-65.230969,-26.819449],[-65.231127,-26.819444],[-65.230873,-26.818405],[-65.229821,-26.814461],[-65.229214,-26.813167]]]]}},{"type":"Feature","properties":{"nombre":"Circuito 7","id":30},"geometry":{"type":"MultiPolygon","coordinates":[[[[-65.23221,-26.825112],[-65.231118,-26.819449],[-65.230966,-26.819449],[-65.228115,-26.819995],[-65.228034,-26.820319],[-65.224798,-26.820946],[-65.223109,-26.821178],[-65.217133,-26.822604],[-65.218662,-26.828193],[-65.228082,-26.825975],[-65.23221,-26.825112]]]]}},{"type":"Feature","properties":{"nombre":"Circuito 8","id":31},"geometry":{"type":"MultiPolygon","coordinates":[[[[-65.233584,-26.830522],[-65.232187,-26.825115],[-65.228964,-26.825797],[-65.218663,-26.828194],[-65.219876,-26.83315],[-65.221468,-26.832846],[-65.221605,-26.833256],[-65.232272,-26.830772],[-65.233584,-26.830522]]]]}},{"type":"Feature","properties":{"nombre":"Circuito 8A","id":32},"geometry":{"type":"MultiPolygon","coordinates":[[[[-65.235394,-26.837646],[-65.233584,-26.830522],[-65.232143,-26.830802],[-65.221609,-26.833229],[-65.221457,-26.832843],[-65.21988,-26.833153],[-65.221541,-26.840457],[-65.231127,-26.838515],[-65.235394,-26.837646]]]]}},{"type":"Feature","properties":{"nombre":"Circuito 19","id":33},"geometry":{"type":"MultiPolygon","coordinates":[[[[-65.225075,-26.855185],[-65.240333,-26.852399],[-65.238873,-26.849288],[-65.237752,-26.844706],[-65.236704,-26.843013],[-65.235387,-26.837646],[-65.221525,-26.840442],[-65.225075,-26.855185]]]]}},{"type":"Feature","properties":{"nombre":"Circuito 19A","id":34},"geometry":{"type":"MultiPolygon","coordinates":[[[[-65.241881,-26.859038],[-65.241368,-26.857231],[-65.240946,-26.855379],[-65.240333,-26.852396],[-65.22509,-26.855246],[-65.225606,-26.857203],[-65.230535,-26.860722],[-65.231612,-26.861693],[-65.234039,-26.865439],[-65.241881,-26.859038]]]]}},{"type":"Feature","properties":{"nombre":"Circuito 15B","id":35},"geometry":{"type":"MultiPolygon","coordinates":[[[[-65.22236,-26.788688],[-65.225363,-26.799761],[-65.235177,-26.798085],[-65.235258,-26.79847],[-65.245024,-26.796831],[-65.245344,-26.796663],[-65.251466,-26.795456],[-65.252614,-26.797808],[-65.258427,-26.79612],[-65.256788,-26.791812],[-65.248931,-26.783349],[-65.233277,-26.786655],[-65.232549,-26.787141],[-65.22366,-26.788839],[-65.22236,-26.788688]]]]}},{"type":"Feature","properties":{"nombre":"Circuito 16","id":36},"geometry":{"type":"MultiPolygon","coordinates":[[[[-65.229326,-26.813313],[-65.248218,-26.80943],[-65.247306,-26.806239],[-65.245208,-26.796735],[-65.245023,-26.796832],[-65.23526,-26.798474],[-65.235178,-26.798083],[-65.225389,-26.799753],[-65.226391,-26.803469],[-65.227877,-26.808884],[-65.229212,-26.813171],[-65.22929,-26.813321],[-65.229326,-26.813313]]]]}},{"type":"Feature","properties":{"nombre":"Circuito 16A","id":37},"geometry":{"type":"MultiPolygon","coordinates":[[[[-65.248214,-26.809413],[-65.261843,-26.806577],[-65.259901,-26.800024],[-65.258425,-26.796121],[-65.252614,-26.797809],[-65.251469,-26.795457],[-65.245344,-26.796663],[-65.245207,-26.796735],[-65.247309,-26.806229],[-65.248214,-26.809413]]]]}},{"type":"Feature","properties":{"nombre":"Circuito 17A","id":38},"geometry":{"type":"MultiPolygon","coordinates":[[[[-65.266878,-26.825037],[-65.265695,-26.82173],[-65.264209,-26.815056],[-65.263602,-26.810384],[-65.262449,-26.808534],[-65.261858,-26.806569],[-65.248237,-26.809444],[-65.250982,-26.821047],[-65.254592,-26.83388],[-65.257383,-26.834031],[-65.258779,-26.834092],[-65.261145,-26.82939],[-65.262965,-26.828419],[-65.264755,-26.827448],[-65.266332,-26.826356],[-65.266939,-26.82584],[-65.266878,-26.825037]]]]}},{"type":"Feature","properties":{"nombre":"Circuito 17","id":39},"geometry":{"type":"MultiPolygon","coordinates":[[[[-65.250955,-26.820952],[-65.249099,-26.813085],[-65.248204,-26.809433],[-65.229259,-26.813271],[-65.229775,-26.814378],[-65.230002,-26.815136],[-65.230988,-26.818716],[-65.231595,-26.821917],[-65.232187,-26.82511],[-65.250955,-26.820952]]]]}},{"type":"Feature","properties":{"nombre":"Circuito 18","id":40},"geometry":{"type":"MultiPolygon","coordinates":[[[[-65.254579,-26.833877],[-65.252554,-26.826585],[-65.250954,-26.820961],[-65.232206,-26.825113],[-65.235394,-26.837646],[-65.254579,-26.833877]]]]}},{"type":"Feature","properties":{"nombre":"Circuito 18A","id":41},"geometry":{"type":"MultiPolygon","coordinates":[[[[-65.25897,-26.834161],[-65.261382,-26.835496],[-65.269102,-26.841017],[-65.269891,-26.839698],[-65.2698,-26.838272],[-65.270422,-26.836254],[-65.270346,-26.835117],[-65.271044,-26.832963],[-65.27068,-26.832068],[-65.26977,-26.831249],[-65.269633,-26.830233],[-65.269087,-26.82905],[-65.267752,-26.826077],[-65.266918,-26.825212],[-65.266918,-26.825788],[-65.265811,-26.826683],[-65.264173,-26.827775],[-65.262292,-26.828655],[-65.261048,-26.829535],[-65.260593,-26.830475],[-65.25889,-26.833888],[-65.258784,-26.834093],[-65.25897,-26.834161]]]]}},{"type":"Feature","properties":{"nombre":"Circuito 18B","id":42},"geometry":{"type":"MultiPolygon","coordinates":[[[[-65.250404,-26.849913],[-65.252618,-26.849769],[-65.265337,-26.847145],[-65.265265,-26.846827],[-65.270028,-26.845852],[-65.269269,-26.844942],[-65.268587,-26.843183],[-65.268132,-26.842697],[-65.268298,-26.842197],[-65.269118,-26.841013],[-65.262599,-26.83633],[-65.26134,-26.835466],[-65.258807,-26.834101],[-65.256774,-26.837051],[-65.255076,-26.839599],[-65.253255,-26.842754],[-65.250351,-26.849875],[-65.250404,-26.849913]]]]}},{"type":"Feature","properties":{"nombre":"Circuito 18F","id":43},"geometry":{"type":"MultiPolygon","coordinates":[[[[-65.270054,-26.845833],[-65.26528,-26.846846],[-65.265337,-26.847141],[-65.264742,-26.847263],[-65.265342,-26.849731],[-65.265215,-26.849957],[-65.265818,-26.852488],[-65.265485,-26.852625],[-65.266244,-26.854632],[-65.2666,-26.855621],[-65.266844,-26.856702],[-65.265728,-26.856936],[-65.267092,-26.858307],[-65.27184,-26.860074],[-65.270492,-26.85666],[-65.271795,-26.85493],[-65.272978,-26.854475],[-65.273615,-26.853262],[-65.274343,-26.851988],[-65.274768,-26.850805],[-65.274404,-26.849743],[-65.27319,-26.848499],[-65.272037,-26.847225],[-65.270111,-26.845958],[-65.270054,-26.845833]]]]}},{"type":"Feature","properties":{"nombre":"Circuito 18C","id":44},"geometry":{"type":"MultiPolygon","coordinates":[[[[-65.250347,-26.849898],[-65.252258,-26.845101],[-65.253259,-26.842773],[-65.254996,-26.839739],[-65.256702,-26.837153],[-65.258739,-26.834199],[-65.258788,-26.834097],[-65.254594,-26.833881],[-65.243734,-26.835989],[-65.243969,-26.836808],[-65.244071,-26.837597],[-65.244299,-26.837597],[-65.244575,-26.840225],[-65.244864,-26.841889],[-65.245175,-26.841897],[-65.247465,-26.850626],[-65.250347,-26.849898]]]]}},{"type":"Feature","properties":{"nombre":"Circuito 18D","id":45},"geometry":{"type":"MultiPolygon","coordinates":[[[[-65.244854,-26.841898],[-65.244598,-26.840243],[-65.244297,-26.837598],[-65.244092,-26.837598],[-65.243961,-26.83681],[-65.243745,-26.835999],[-65.235391,-26.837646],[-65.236707,-26.843017],[-65.237127,-26.843636],[-65.244854,-26.841898]]]]}},{"type":"Feature","properties":{"nombre":"Circuito 18E","id":46},"geometry":{"type":"MultiPolygon","coordinates":[[[[-65.25036,-26.849895],[-65.247436,-26.850646],[-65.24519,-26.841904],[-65.244843,-26.841898],[-65.23713,-26.843633],[-65.237739,-26.844693],[-65.23887,-26.849281],[-65.240333,-26.852389],[-65.240986,-26.855517],[-65.241394,-26.857238],[-65.241908,-26.859042],[-65.247459,-26.854116],[-65.249029,-26.852455],[-65.25036,-26.849895]]]]}},{"type":"Feature","properties":{"nombre":"Circuito 18G","id":47},"geometry":{"type":"MultiPolygon","coordinates":[[[[-65.271531,-26.866311],[-65.272714,-26.861579],[-65.272168,-26.860669],[-65.271835,-26.860067],[-65.267094,-26.858297],[-65.265736,-26.85692],[-65.266837,-26.856696],[-65.266593,-26.855601],[-65.266244,-26.854632],[-65.265486,-26.852625],[-65.26582,-26.852483],[-65.265219,-26.849952],[-65.265341,-26.849729],[-65.264744,-26.847284],[-65.252608,-26.849769],[-65.250373,-26.849907],[-65.24887,-26.85266],[-65.241902,-26.859021],[-65.234033,-26.865467],[-65.239729,-26.87275],[-65.271201,-26.866453],[-65.271531,-26.866311]]]]}}]}