{"type":"FeatureCollection","features":[{"type":"Feature","properties":{"nombre":"Distrito 1","id":1},"geometry":{"type":"MultiPolygon","coordinates":[[[[-65.249553,-26.784136],[-65.249471,-26.7839],[-65.24944,-26.783788],[-65.24892,-26.783169],[-65.247835,-26.783431],[-65.246073,-26.783906],[-65.244361,-26.784349],[-65.242599,-26.784762],[-65.242599,-26.784762],[-65.243104,-26.786994],[-65.247771,-26.808008],[-65.247781,-26.808049],[-65.247783,-26.808049],[-65.257486,-26.806256],[-65.257644,-26.80702],[-65.257724,-26.807405],[-65.257729,-26.807404],[-65.261815,-26.806564],[-65.26153,-26.805754],[-65.261503,-26.80569],[-65.261164,-26.804682],[-65.260883,-26.803816],[-65.260754,-26.803386],[-65.260636,-26.803008],[-65.260531,-26.802634],[-65.260261,-26.801665],[-65.260091,-26.801003],[-65.260012,-26.800766],[-65.259597,-26.799474],[-65.259548,-26.799321],[-65.259438,-26.799008],[-65.259227,-26.798455],[-65.258882,-26.797579],[-65.25848,-26.796487],[-65.258263,-26.795905],[-65.257972,-26.795125],[-65.257772,-26.794575],[-65.257654,-26.794232],[-65.257361,-26.79345],[-65.256804,-26.791936],[-65.255516,-26.790544],[-65.255325,-26.790335],[-65.255071,-26.790157],[-65.254934,-26.79003],[-65.252875,-26.78783],[-65.251477,-26.786281],[-65.250695,-26.785408],[-65.250317,-26.785009],[-65.249921,-26.784591],[-65.249638,-26.784264],[-65.249553,-26.784136]]]]}},{"type":"Feature","properties":{"nombre":"Distrito 2","id":2},"geometry":{"type":"MultiPolygon","coordinates":[[[[-65.241589,-26.78499],[-65.241546,-26.78454],[-65.241501,-26.784246],[-65.241431,-26.783814],[-65.241132,-26.783911],[-65.241059,-26.784653],[-65.240915,-26.784832],[-65.240601,-26.785071],[-65.240247,-26.78528],[-65.239686,-26.785493],[-65.23882,-26.78566],[-65.238052,-26.785797],[-65.237293,-26.785931],[-65.237018,-26.78598],[-65.236528,-26.786066],[-65.236074,-26.786147],[-65.235565,-26.786238],[-65.235056,-26.786329],[-65.234535,-26.78642],[-65.233796,-26.786553],[-65.233442,-26.786643],[-65.233121,-26.7868],[-65.232889,-26.786955],[-65.232797,-26.78702],[-65.232687,-26.787103],[-65.232597,-26.787146],[-65.232706,-26.78756],[-65.232716,-26.787597],[-65.232719,-26.78761],[-65.232733,-26.787666],[-65.232717,-26.787669],[-65.233189,-26.789449],[-65.237539,-26.808804],[-65.247469,-26.80686],[-65.246992,-26.804509],[-65.246406,-26.802105],[-65.244684,-26.794249],[-65.243245,-26.787656],[-65.243104,-26.786994],[-65.242599,-26.784762],[-65.241589,-26.78499]]]]}},{"type":"Feature","properties":{"nombre":"Distrito 3","id":3},"geometry":{"type":"MultiPolygon","coordinates":[[[[-65.223196,-26.788865],[-65.223022,-26.788846],[-65.222818,-26.788815],[-65.222605,-26.788759],[-65.222261,-26.788645],[-65.222293,-26.788772],[-65.222471,-26.789524],[-65.222668,-26.790229],[-65.22282,-26.790759],[-65.223402,-26.79281],[-65.229181,-26.813356],[-65.229184,-26.813355],[-65.235574,-26.812077],[-65.238258,-26.811541],[-65.237918,-26.810246],[-65.237544,-26.808823],[-65.237539,-26.808804],[-65.237539,-26.808804],[-65.237539,-26.808804],[-65.236063,-26.802376],[-65.233906,-26.792691],[-65.233085,-26.789225],[-65.232717,-26.787669],[-65.232733,-26.787666],[-65.232719,-26.78761],[-65.232706,-26.78756],[-65.232597,-26.787146],[-65.23246,-26.787211],[-65.232173,-26.787312],[-65.231337,-26.787468],[-65.229901,-26.787734],[-65.227579,-26.788165],[-65.226709,-26.788327],[-65.225711,-26.788508],[-65.224572,-26.788718],[-65.2239,-26.788841],[-65.223508,-26.788887],[-65.223196,-26.788865]]]]}},{"type":"Feature","properties":{"nombre":"Distrito 4","id":4},"geometry":{"type":"MultiPolygon","coordinates":[[[[-65.221911,-26.788493],[-65.221751,-26.788409],[-65.221614,-26.788302],[-65.22062,-26.787605],[-65.220085,-26.787218],[-65.219823,-26.787087],[-65.219479,-26.786951],[-65.218972,-26.786832],[-65.218921,-26.786862],[-65.21832,-26.786815],[-65.21827,-26.786743],[-65.217875,-26.786903],[-65.217727,-26.786915],[-65.217458,-26.786976],[-65.217026,-26.787135],[-65.216604,-26.787373],[-65.216255,-26.787624],[-65.215933,-26.787939],[-65.215658,-26.788353],[-65.215138,-26.789225],[-65.214966,-26.789514],[-65.214697,-26.789972],[-65.214488,-26.790324],[-65.214267,-26.790556],[-65.214005,-26.790767],[-65.213713,-26.790961],[-65.213393,-26.791099],[-65.213012,-26.791217],[-65.212419,-26.791283],[-65.210962,-26.791391],[-65.210828,-26.791562],[-65.210415,-26.792201],[-65.211012,-26.794863],[-65.210685,-26.795584],[-65.213179,-26.806099],[-65.214759,-26.813095],[-65.212373,-26.813601],[-65.211551,-26.813781],[-65.211473,-26.813803],[-65.212182,-26.816636],[-65.215211,-26.816088],[-65.215447,-26.816243],[-65.215645,-26.816057],[-65.215642,-26.815984],[-65.215624,-26.815761],[-65.21563,-26.815759],[-65.215629,-26.815754],[-65.218284,-26.815246],[-65.229181,-26.813356],[-65.225336,-26.799794],[-65.222436,-26.789404],[-65.222288,-26.788774],[-65.222261,-26.788645],[-65.222144,-26.788605],[-65.221911,-26.788493]]]]}},{"type":"Feature","properties":{"nombre":"Distrito 5","id":5},"geometry":{"type":"MultiPolygon","coordinates":[[[[-65.198918,-26.79223],[-65.198524,-26.792296],[-65.198126,-26.79243],[-65.197737,-26.792596],[-65.197106,-26.792935],[-65.196931,-26.79303],[-65.196829,-26.793085],[-65.196643,-26.793186],[-65.196443,-26.793294],[-65.196504,-26.793522],[-65.196259,-26.793752],[-65.195718,-26.794959],[-65.197771,-26.794576],[-65.197773,-26.794585],[-65.198211,-26.796489],[-65.203232,-26.818355],[-65.206218,-26.817799],[-65.208147,-26.817425],[-65.212151,-26.816644],[-65.212183,-26.816638],[-65.212182,-26.816636],[-65.211473,-26.813803],[-65.211551,-26.813781],[-65.21163,-26.813759],[-65.212373,-26.813601],[-65.214759,-26.813095],[-65.213179,-26.806099],[-65.210685,-26.795584],[-65.211012,-26.794863],[-65.210415,-26.792201],[-65.210828,-26.791562],[-65.210962,-26.791391],[-65.207291,-26.791646],[-65.206478,-26.791702],[-65.205253,-26.791786],[-65.201773,-26.79203],[-65.198918,-26.79223]]]]}},{"type":"Feature","properties":{"nombre":"Distrito 6","id":6},"geometry":{"type":"MultiPolygon","coordinates":[[[[-65.19635,-26.793345],[-65.196023,-26.79352],[-65.195656,-26.793671],[-65.19525,-26.793791],[-65.194752,-26.79391],[-65.194421,-26.793989],[-65.193979,-26.794093],[-65.193322,-26.79425],[-65.192966,-26.794334],[-65.192403,-26.794469],[-65.191768,-26.794622],[-65.191186,-26.794758],[-65.19058,-26.794903],[-65.190165,-26.795002],[-65.189915,-26.795061],[-65.189755,-26.7951],[-65.189584,-26.795141],[-65.189285,-26.795211],[-65.189031,-26.795271],[-65.188753,-26.795338],[-65.188339,-26.795437],[-65.18817,-26.795507],[-65.188214,-26.795724],[-65.188328,-26.796043],[-65.188474,-26.796448],[-65.188477,-26.796455],[-65.188516,-26.79662],[-65.19126,-26.808056],[-65.192958,-26.815135],[-65.194149,-26.820101],[-65.194153,-26.820116],[-65.194155,-26.820116],[-65.201667,-26.818679],[-65.203209,-26.818376],[-65.198211,-26.796489],[-65.197773,-26.794585],[-65.195706,-26.794982],[-65.196221,-26.793763],[-65.196465,-26.793522],[-65.196443,-26.793294],[-65.19635,-26.793345]]]]}},{"type":"Feature","properties":{"nombre":"Distrito 7","id":7},"geometry":{"type":"MultiPolygon","coordinates":[[[[-65.187563,-26.79552],[-65.18715,-26.7955],[-65.186833,-26.795459],[-65.18668,-26.795433],[-65.186501,-26.795391],[-65.18629,-26.795337],[-65.186111,-26.795271],[-65.185957,-26.79521],[-65.185753,-26.795115],[-65.185573,-26.79503],[-65.185276,-26.79484],[-65.185129,-26.794746],[-65.185023,-26.794661],[-65.184768,-26.794457],[-65.184508,-26.794157],[-65.184333,-26.793923],[-65.184236,-26.793766],[-65.184073,-26.793489],[-65.183828,-26.793073],[-65.183733,-26.792909],[-65.183559,-26.792694],[-65.183285,-26.792478],[-65.183042,-26.792325],[-65.18289,-26.792264],[-65.182765,-26.792211],[-65.182466,-26.792134],[-65.182088,-26.792101],[-65.181636,-26.792144],[-65.181527,-26.792154],[-65.181256,-26.792239],[-65.181052,-26.792328],[-65.180903,-26.792392],[-65.180874,-26.792411],[-65.180671,-26.792536],[-65.180449,-26.792673],[-65.180311,-26.792758],[-65.180096,-26.79289],[-65.179808,-26.793002],[-65.179533,-26.793085],[-65.179345,-26.793104],[-65.17911,-26.793121],[-65.178768,-26.793105],[-65.178432,-26.793027],[-65.178031,-26.792883],[-65.177886,-26.792799],[-65.177753,-26.792706],[-65.177281,-26.79232],[-65.176617,-26.791773],[-65.175887,-26.791169],[-65.175108,-26.790527],[-65.174876,-26.790335],[-65.174581,-26.790125],[-65.174393,-26.790016],[-65.174173,-26.78989],[-65.173767,-26.789697],[-65.173225,-26.789477],[-65.172815,-26.789364],[-65.172666,-26.789332],[-65.172254,-26.789245],[-65.171746,-26.789189],[-65.171289,-26.789173],[-65.170888,-26.789187],[-65.170806,-26.789193],[-65.170464,-26.789232],[-65.170145,-26.789293],[-65.169932,-26.789335],[-65.169468,-26.789462],[-65.168989,-26.789636],[-65.168725,-26.789727],[-65.168551,-26.789739],[-65.168478,-26.789697],[-65.16834,-26.789708],[-65.168049,-26.789819],[-65.16796,-26.789911],[-65.167895,-26.79001],[-65.167456,-26.790323],[-65.167226,-26.790414],[-65.167027,-26.790696],[-65.166668,-26.790886],[-65.166339,-26.791228],[-65.166045,-26.791629],[-65.165613,-26.792168],[-65.165494,-26.792474],[-65.165127,-26.792715],[-65.164837,-26.792876],[-65.164763,-26.792973],[-65.164632,-26.793142],[-65.164505,-26.793369],[-65.164241,-26.79363],[-65.164122,-26.793847],[-65.163939,-26.794338],[-65.163865,-26.794583],[-65.163288,-26.795036],[-65.162541,-26.795449],[-65.161573,-26.79597],[-65.161389,-26.796666],[-65.16133,-26.797778],[-65.161285,-26.798565],[-65.161902,-26.799248],[-65.162434,-26.799827],[-65.16256,-26.800125],[-65.162547,-26.800581],[-65.162331,-26.801358],[-65.161095,-26.802626],[-65.160516,-26.803364],[-65.160158,-26.803829],[-65.159596,-26.80447],[-65.159164,-26.805048],[-65.159023,-26.805501],[-65.158787,-26.806026],[-65.158698,-26.806778],[-65.159105,-26.808146],[-65.160102,-26.80953],[-65.16091,-26.811275],[-65.160697,-26.812188],[-65.160608,-26.812562],[-65.160252,-26.813365],[-65.160421,-26.813896],[-65.160561,-26.814336],[-65.160646,-26.814618],[-65.160566,-26.815169],[-65.160527,-26.815433],[-65.160485,-26.815521],[-65.180561,-26.811711],[-65.191611,-26.809625],[-65.19126,-26.808056],[-65.188516,-26.79662],[-65.188474,-26.796448],[-65.188328,-26.796043],[-65.188211,-26.795724],[-65.18817,-26.795507],[-65.188125,-26.795525],[-65.187876,-26.795522],[-65.187563,-26.79552]]]]}},{"type":"Feature","properties":{"nombre":"Distrito 8","id":8},"geometry":{"type":"MultiPolygon","coordinates":[[[[-65.160485,-26.815521],[-65.160288,-26.815944],[-65.160167,-26.816368],[-65.160014,-26.816929],[-65.160321,-26.81774],[-65.160943,-26.818202],[-65.161868,-26.818564],[-65.162368,-26.818761],[-65.162994,-26.819514],[-65.162863,-26.82],[-65.162707,-26.820563],[-65.162678,-26.821508],[-65.163193,-26.821979],[-65.163922,-26.822177],[-65.164198,-26.822372],[-65.164493,-26.822578],[-65.164624,-26.822918],[-65.164785,-26.823349],[-65.164894,-26.82393],[-65.16696,-26.823909],[-65.169882,-26.823882],[-65.170665,-26.823869],[-65.172119,-26.82386],[-65.172718,-26.823857],[-65.172947,-26.823852],[-65.173418,-26.823844],[-65.174443,-26.823637],[-65.178077,-26.822866],[-65.191641,-26.820471],[-65.194149,-26.820101],[-65.192958,-26.815135],[-65.191614,-26.809635],[-65.160485,-26.815521]]]]}},{"type":"Feature","properties":{"nombre":"Distrito 9","id":9},"geometry":{"type":"MultiPolygon","coordinates":[[[[-65.237539,-26.808804],[-65.237539,-26.808804],[-65.237918,-26.810246],[-65.238258,-26.811541],[-65.235574,-26.812077],[-65.229184,-26.813355],[-65.229181,-26.813356],[-65.228858,-26.81342],[-65.22985,-26.814795],[-65.231336,-26.820788],[-65.231512,-26.822055],[-65.232075,-26.825029],[-65.234634,-26.834831],[-65.235408,-26.837638],[-65.241395,-26.836495],[-65.242358,-26.836298],[-65.245693,-26.835673],[-65.25444,-26.834002],[-65.255427,-26.834031],[-65.255908,-26.834055],[-65.255927,-26.834056],[-65.256253,-26.834076],[-65.256545,-26.834093],[-65.256576,-26.834096],[-65.256969,-26.834127],[-65.257135,-26.834074],[-65.257305,-26.834062],[-65.257502,-26.83406],[-65.257831,-26.834083],[-65.258202,-26.834137],[-65.258474,-26.834217],[-65.258585,-26.834251],[-65.258612,-26.834259],[-65.258726,-26.834295],[-65.25886,-26.834337],[-65.258991,-26.834381],[-65.259018,-26.834178],[-65.259106,-26.833892],[-65.259147,-26.833796],[-65.259333,-26.833352],[-65.259387,-26.833225],[-65.259387,-26.833225],[-65.259387,-26.833225],[-65.259473,-26.833014],[-65.259628,-26.83264],[-65.259817,-26.832189],[-65.259876,-26.832047],[-65.260041,-26.831643],[-65.260169,-26.83134],[-65.260195,-26.831279],[-65.260297,-26.831019],[-65.260375,-26.830828],[-65.260464,-26.830646],[-65.260566,-26.830472],[-65.260695,-26.830257],[-65.260763,-26.830168],[-65.260964,-26.829891],[-65.261,-26.829846],[-65.261024,-26.829811],[-65.261079,-26.829744],[-65.261164,-26.829635],[-65.261248,-26.829527],[-65.261528,-26.829273],[-65.261585,-26.829235],[-65.261903,-26.829011],[-65.262126,-26.828865],[-65.262273,-26.828769],[-65.262435,-26.828683],[-65.262455,-26.828673],[-65.262751,-26.828525],[-65.262761,-26.82852],[-65.263499,-26.828175],[-65.263515,-26.828168],[-65.263902,-26.827988],[-65.26431,-26.827791],[-65.265107,-26.827391],[-65.265607,-26.827139],[-65.265774,-26.827037],[-65.266009,-26.826877],[-65.266202,-26.826718],[-65.266359,-26.826548],[-65.266558,-26.826266],[-65.266623,-26.826108],[-65.266719,-26.825842],[-65.266773,-26.825608],[-65.266797,-26.825404],[-65.266852,-26.8251],[-65.266807,-26.824893],[-65.266682,-26.824496],[-65.26647,-26.823841],[-65.266034,-26.822477],[-65.265835,-26.821809],[-65.265604,-26.82098],[-65.265518,-26.820612],[-65.26514,-26.81904],[-65.264987,-26.818386],[-65.264679,-26.817131],[-65.264387,-26.815908],[-65.264341,-26.815617],[-65.264289,-26.815274],[-65.264253,-26.814975],[-65.264199,-26.814522],[-65.26416,-26.814209],[-65.264149,-26.814061],[-65.264111,-26.81366],[-65.264085,-26.813415],[-65.263945,-26.812041],[-65.263892,-26.811635],[-65.263808,-26.811238],[-65.26376,-26.810985],[-65.263636,-26.810524],[-65.26348,-26.810102],[-65.263431,-26.810008],[-65.263253,-26.809681],[-65.26295,-26.809152],[-65.262538,-26.808465],[-65.262397,-26.808193],[-65.262327,-26.808026],[-65.262192,-26.80765],[-65.261976,-26.80691],[-65.261924,-26.806795],[-65.261853,-26.806642],[-65.261815,-26.806564],[-65.25773,-26.807411],[-65.257729,-26.807404],[-65.257724,-26.807405],[-65.257644,-26.80702],[-65.257479,-26.806274],[-65.247791,-26.808078],[-65.247783,-26.808049],[-65.247781,-26.808049],[-65.247771,-26.808008],[-65.247462,-26.806883],[-65.237539,-26.808804]]]]}},{"type":"Feature","properties":{"nombre":"Distrito 10","id":10},"geometry":{"type":"MultiPolygon","coordinates":[[[[-65.21283,-26.816521],[-65.212183,-26.816638],[-65.212151,-26.816644],[-65.208147,-26.817425],[-65.206218,-26.817799],[-65.203304,-26.818365],[-65.201667,-26.818679],[-65.194155,-26.820116],[-65.194153,-26.820116],[-65.191673,-26.820467],[-65.191736,-26.820934],[-65.191772,-26.821086],[-65.191788,-26.821187],[-65.191807,-26.821301],[-65.191824,-26.82141],[-65.191864,-26.821564],[-65.191931,-26.821829],[-65.191951,-26.821901],[-65.191959,-26.821942],[-65.191959,-26.821942],[-65.191959,-26.821942],[-65.191961,-26.821951],[-65.191962,-26.821955],[-65.191965,-26.821969],[-65.192038,-26.822296],[-65.192166,-26.822868],[-65.192278,-26.823364],[-65.192508,-26.824355],[-65.192652,-26.82492],[-65.192892,-26.825863],[-65.193,-26.826371],[-65.193,-26.826371],[-65.193111,-26.826823],[-65.193361,-26.827846],[-65.193548,-26.828625],[-65.193939,-26.830352],[-65.194243,-26.83159],[-65.194291,-26.831777],[-65.194446,-26.832415],[-65.194551,-26.832812],[-65.194551,-26.832813],[-65.194635,-26.833144],[-65.194698,-26.833416],[-65.195151,-26.835378],[-65.195287,-26.835908],[-65.195593,-26.837162],[-65.195737,-26.837719],[-65.195859,-26.838212],[-65.196011,-26.838868],[-65.196064,-26.839066],[-65.196099,-26.839181],[-65.196599,-26.841288],[-65.196779,-26.84202],[-65.19719,-26.843729],[-65.197274,-26.844106],[-65.197665,-26.845789],[-65.197667,-26.845789],[-65.197892,-26.84572],[-65.199098,-26.845355],[-65.19919,-26.845328],[-65.199248,-26.84531],[-65.199277,-26.845302],[-65.199491,-26.845244],[-65.20001,-26.845091],[-65.200073,-26.845072],[-65.20019,-26.844865],[-65.200284,-26.844698],[-65.200304,-26.844694],[-65.218694,-26.841021],[-65.225984,-26.839564],[-65.23538,-26.837687],[-65.234634,-26.834831],[-65.232075,-26.825029],[-65.231512,-26.822055],[-65.23126,-26.820719],[-65.229812,-26.814777],[-65.228823,-26.81342],[-65.218424,-26.815237],[-65.21563,-26.815759],[-65.215624,-26.815761],[-65.215642,-26.815984],[-65.215648,-26.816058],[-65.21545,-26.816242],[-65.215448,-26.816245],[-65.215211,-26.81609],[-65.214585,-26.816204],[-65.214109,-26.816291],[-65.213788,-26.816349],[-65.213348,-26.816427],[-65.21283,-26.816521]]]]}},{"type":"Feature","properties":{"nombre":"Distrito 11","id":11},"geometry":{"type":"MultiPolygon","coordinates":[[[[-65.167887,-26.828734],[-65.168272,-26.829283],[-65.168959,-26.829715],[-65.169251,-26.830196],[-65.169798,-26.831114],[-65.170225,-26.831487],[-65.170723,-26.83207],[-65.171059,-26.832772],[-65.171373,-26.833435],[-65.171741,-26.834204],[-65.172039,-26.834369],[-65.172907,-26.835839],[-65.173662,-26.837113],[-65.174076,-26.838164],[-65.175415,-26.838948],[-65.176052,-26.839717],[-65.176518,-26.840998],[-65.176488,-26.841493],[-65.176306,-26.842141],[-65.176756,-26.842619],[-65.176808,-26.84286],[-65.176954,-26.843453],[-65.176966,-26.844019],[-65.17709,-26.844292],[-65.177341,-26.844826],[-65.177578,-26.845197],[-65.177767,-26.845479],[-65.178218,-26.845858],[-65.178617,-26.845969],[-65.179304,-26.846054],[-65.179714,-26.847203],[-65.179703,-26.848724],[-65.179587,-26.848973],[-65.179575,-26.849574],[-65.179684,-26.850187],[-65.179727,-26.850461],[-65.179961,-26.850424],[-65.183497,-26.84988],[-65.183541,-26.849865],[-65.183615,-26.849807],[-65.183772,-26.849758],[-65.183772,-26.849758],[-65.183887,-26.849722],[-65.184021,-26.849678],[-65.184297,-26.849588],[-65.184373,-26.849578],[-65.184453,-26.849588],[-65.184488,-26.849598],[-65.184554,-26.849589],[-65.184611,-26.849572],[-65.184759,-26.84953],[-65.185434,-26.849338],[-65.185436,-26.849337],[-65.18631,-26.849088],[-65.186937,-26.848909],[-65.186937,-26.848909],[-65.186937,-26.848909],[-65.188526,-26.84845],[-65.189413,-26.84819],[-65.189851,-26.848061],[-65.190278,-26.847936],[-65.190888,-26.847761],[-65.191063,-26.847718],[-65.191178,-26.84767],[-65.19145,-26.847593],[-65.191973,-26.847439],[-65.192965,-26.84716],[-65.193578,-26.846985],[-65.193975,-26.846864],[-65.194306,-26.84676],[-65.194639,-26.846658],[-65.194924,-26.846572],[-65.19501,-26.846545],[-65.195149,-26.846504],[-65.195499,-26.846404],[-65.19571,-26.846344],[-65.196415,-26.846149],[-65.196943,-26.845997],[-65.197665,-26.845789],[-65.197274,-26.844106],[-65.19719,-26.843729],[-65.196779,-26.84202],[-65.196599,-26.841288],[-65.196099,-26.839181],[-65.196064,-26.839066],[-65.196011,-26.838868],[-65.195859,-26.838212],[-65.195737,-26.837719],[-65.195593,-26.837162],[-65.195287,-26.835908],[-65.195151,-26.835378],[-65.19491,-26.834339],[-65.194698,-26.833416],[-65.194635,-26.833144],[-65.194551,-26.832813],[-65.194551,-26.832812],[-65.194446,-26.832415],[-65.194291,-26.831777],[-65.194243,-26.83159],[-65.193939,-26.830352],[-65.193548,-26.828625],[-65.193361,-26.827846],[-65.193111,-26.826823],[-65.193014,-26.826436],[-65.193,-26.826371],[-65.193,-26.826371],[-65.192892,-26.825863],[-65.192652,-26.82492],[-65.192508,-26.824355],[-65.192278,-26.823364],[-65.192166,-26.822868],[-65.192166,-26.822866],[-65.192038,-26.822296],[-65.191965,-26.821969],[-65.191962,-26.821955],[-65.191962,-26.821954],[-65.191961,-26.821951],[-65.191959,-26.821942],[-65.191951,-26.821901],[-65.191931,-26.821829],[-65.191864,-26.821564],[-65.191824,-26.82141],[-65.191807,-26.821301],[-65.191788,-26.821187],[-65.191772,-26.821086],[-65.191736,-26.820934],[-65.191673,-26.820467],[-65.182652,-26.822083],[-65.178058,-26.8229],[-65.17342,-26.823848],[-65.172947,-26.823852],[-65.172718,-26.823857],[-65.172119,-26.82386],[-65.164894,-26.82393],[-65.164928,-26.824107],[-65.164824,-26.82463],[-65.164975,-26.825009],[-65.165294,-26.825408],[-65.165971,-26.825794],[-65.166346,-26.825931],[-65.166934,-26.826545],[-65.167266,-26.826602],[-65.167713,-26.827615],[-65.167505,-26.828196],[-65.16771,-26.828485],[-65.167887,-26.828734]]]]}},{"type":"Feature","properties":{"nombre":"Distrito 12","id":12},"geometry":{"type":"MultiPolygon","coordinates":[[[[-65.254184,-26.849419],[-65.254246,-26.849408],[-65.2543,-26.849398],[-65.2543,-26.849398],[-65.254331,-26.849393],[-65.254331,-26.849393],[-65.254491,-26.849363],[-65.254904,-26.84929],[-65.255666,-26.849138],[-65.256007,-26.849046],[-65.256587,-26.848927],[-65.256814,-26.848883],[-65.257473,-26.848755],[-65.257569,-26.848736],[-65.25771,-26.8487],[-65.258291,-26.84854],[-65.258517,-26.848492],[-65.258654,-26.848463],[-65.258744,-26.848446],[-65.259105,-26.848377],[-65.259493,-26.848302],[-65.260017,-26.848199],[-65.261303,-26.847956],[-65.265287,-26.847137],[-65.265259,-26.847003],[-65.265248,-26.84695],[-65.265225,-26.846857],[-65.265317,-26.846838],[-65.266062,-26.846696],[-65.26629,-26.846652],[-65.266815,-26.84655],[-65.266815,-26.84655],[-65.266858,-26.846542],[-65.2669,-26.846533],[-65.2669,-26.846533],[-65.267712,-26.846376],[-65.267983,-26.846322],[-65.267996,-26.84632],[-65.268018,-26.846316],[-65.268029,-26.846313],[-65.2681,-26.846299],[-65.268634,-26.846187],[-65.269151,-26.846077],[-65.269249,-26.846054],[-65.269299,-26.846042],[-65.269238,-26.8459],[-65.269164,-26.845646],[-65.26905,-26.845222],[-65.269072,-26.845081],[-65.268964,-26.844729],[-65.268727,-26.843871],[-65.268624,-26.843479],[-65.268569,-26.843266],[-65.268532,-26.843135],[-65.268522,-26.843058],[-65.268522,-26.843058],[-65.268655,-26.842825],[-65.268745,-26.842679],[-65.268211,-26.842711],[-65.268286,-26.842435],[-65.26859,-26.842179],[-65.268779,-26.841819],[-65.268818,-26.841593],[-65.268832,-26.841455],[-65.268923,-26.841359],[-65.269216,-26.841033],[-65.26948,-26.84075],[-65.269765,-26.839853],[-65.269843,-26.839574],[-65.269953,-26.839248],[-65.270195,-26.838656],[-65.270339,-26.838294],[-65.270214,-26.837618],[-65.270403,-26.837363],[-65.270574,-26.837129],[-65.270678,-26.836716],[-65.270629,-26.836545],[-65.270518,-26.836142],[-65.270595,-26.835742],[-65.270709,-26.835112],[-65.27075,-26.834708],[-65.270777,-26.834633],[-65.270994,-26.834034],[-65.27114,-26.8336],[-65.271361,-26.83297],[-65.271343,-26.83268],[-65.271319,-26.832339],[-65.271313,-26.832215],[-65.271245,-26.832011],[-65.270865,-26.831791],[-65.270418,-26.831635],[-65.270299,-26.831352],[-65.270191,-26.830955],[-65.27003,-26.830752],[-65.269885,-26.830568],[-65.269764,-26.830442],[-65.269648,-26.830397],[-65.269515,-26.830216],[-65.269292,-26.829961],[-65.269125,-26.829765],[-65.269068,-26.829649],[-65.268993,-26.829488],[-65.268809,-26.829101],[-65.268529,-26.828504],[-65.267948,-26.827165],[-65.267702,-26.826683],[-65.267051,-26.825318],[-65.266946,-26.825103],[-65.266852,-26.8251],[-65.266797,-26.825404],[-65.266773,-26.825608],[-65.266719,-26.825842],[-65.266623,-26.826108],[-65.266558,-26.826266],[-65.266359,-26.826548],[-65.266202,-26.826718],[-65.266009,-26.826877],[-65.265774,-26.827037],[-65.265607,-26.827139],[-65.265107,-26.827391],[-65.26431,-26.827791],[-65.263902,-26.827988],[-65.263515,-26.828168],[-65.262761,-26.82852],[-65.262455,-26.828673],[-65.262273,-26.828769],[-65.262126,-26.828865],[-65.261903,-26.829011],[-65.261585,-26.829235],[-65.261528,-26.829273],[-65.261248,-26.829527],[-65.261164,-26.829635],[-65.261079,-26.829744],[-65.261024,-26.829811],[-65.261,-26.829846],[-65.260964,-26.829891],[-65.260763,-26.830168],[-65.260695,-26.830257],[-65.260566,-26.830472],[-65.260464,-26.830646],[-65.260375,-26.830828],[-65.260297,-26.831019],[-65.260195,-26.831279],[-65.260169,-26.83134],[-65.260041,-26.831643],[-65.259876,-26.832047],[-65.259817,-26.832189],[-65.259809,-26.832209],[-65.259628,-26.83264],[-65.259473,-26.833014],[-65.259414,-26.833161],[-65.259387,-26.833225],[-65.259387,-26.833225],[-65.259333,-26.833352],[-65.259147,-26.833796],[-65.259106,-26.833892],[-65.259018,-26.834178],[-65.258991,-26.834381],[-65.258978,-26.834455],[-65.258962,-26.834517],[-65.258961,-26.834521],[-65.258904,-26.834682],[-65.258794,-26.834897],[-65.258778,-26.834925],[-65.258778,-26.834925],[-65.258703,-26.835053],[-65.258414,-26.835468],[-65.25841,-26.835473],[-65.257404,-26.836893],[-65.256941,-26.837555],[-65.256771,-26.837794],[-65.256768,-26.837799],[-65.256729,-26.837848],[-65.256244,-26.838587],[-65.255726,-26.839382],[-65.255555,-26.839664],[-65.255555,-26.839664],[-65.25549,-26.83977],[-65.255145,-26.840323],[-65.255045,-26.840482],[-65.254788,-26.8409],[-65.254762,-26.840941],[-65.254751,-26.84096],[-65.254585,-26.841226],[-65.254494,-26.841373],[-65.254443,-26.841432],[-65.254347,-26.841532],[-65.254301,-26.841591],[-65.254208,-26.841741],[-65.253908,-26.842323],[-65.253774,-26.842577],[-65.253292,-26.843649],[-65.253076,-26.844141],[-65.252696,-26.84499],[-65.252444,-26.845506],[-65.252329,-26.845784],[-65.252182,-26.846127],[-65.251786,-26.847006],[-65.251269,-26.848141],[-65.250911,-26.849017],[-65.25045,-26.85007],[-65.250511,-26.850061],[-65.250542,-26.850033],[-65.250598,-26.85002],[-65.250602,-26.850019],[-65.250606,-26.850019],[-65.250606,-26.850019],[-65.250606,-26.850019],[-65.250606,-26.850019],[-65.250606,-26.850019],[-65.250606,-26.850019],[-65.250606,-26.850019],[-65.250898,-26.849992],[-65.251123,-26.849976],[-65.25135,-26.849958],[-65.251461,-26.84995],[-65.251538,-26.849945],[-65.251668,-26.849932],[-65.25181,-26.849919],[-65.251892,-26.849905],[-65.252,-26.849871],[-65.252154,-26.849824],[-65.253513,-26.849538],[-65.253739,-26.849498],[-65.254075,-26.849438],[-65.254184,-26.849419]]]]}},{"type":"Feature","properties":{"nombre":"Distrito 13","id":13},"geometry":{"type":"MultiPolygon","coordinates":[[[[-65.248406,-26.853498],[-65.249047,-26.853038],[-65.249194,-26.85279],[-65.249294,-26.852629],[-65.24935,-26.852514],[-65.24942,-26.852369],[-65.249498,-26.852199],[-65.249573,-26.852039],[-65.249665,-26.851843],[-65.249812,-26.851491],[-65.249959,-26.85115],[-65.250191,-26.850596],[-65.25045,-26.85007],[-65.250911,-26.849017],[-65.251269,-26.848141],[-65.251786,-26.847006],[-65.252182,-26.846127],[-65.252329,-26.845784],[-65.252444,-26.845506],[-65.252696,-26.84499],[-65.253076,-26.844141],[-65.253292,-26.843649],[-65.253774,-26.842577],[-65.253908,-26.842323],[-65.254208,-26.841741],[-65.254301,-26.841591],[-65.254347,-26.841532],[-65.254443,-26.841432],[-65.254494,-26.841373],[-65.254585,-26.841226],[-65.254751,-26.84096],[-65.254788,-26.8409],[-65.255045,-26.840482],[-65.255145,-26.840323],[-65.25549,-26.83977],[-65.255555,-26.839664],[-65.255555,-26.839664],[-65.255726,-26.839382],[-65.256244,-26.838587],[-65.256729,-26.837848],[-65.256768,-26.837799],[-65.256771,-26.837794],[-65.256941,-26.837555],[-65.257404,-26.836893],[-65.25841,-26.835473],[-65.25841,-26.835473],[-65.25841,-26.835473],[-65.258703,-26.835053],[-65.258778,-26.834925],[-65.258778,-26.834925],[-65.258904,-26.834682],[-65.258962,-26.834517],[-65.258962,-26.834517],[-65.258978,-26.834455],[-65.258991,-26.834381],[-65.258585,-26.834251],[-65.258202,-26.834137],[-65.257831,-26.834083],[-65.257502,-26.83406],[-65.257305,-26.834062],[-65.257135,-26.834074],[-65.256969,-26.834127],[-65.256779,-26.834113],[-65.256576,-26.834096],[-65.256253,-26.834076],[-65.255927,-26.834056],[-65.255908,-26.834055],[-65.255427,-26.834031],[-65.254517,-26.83402],[-65.245693,-26.835673],[-65.242358,-26.836298],[-65.241395,-26.836495],[-65.234212,-26.837958],[-65.235776,-26.843409],[-65.236758,-26.843199],[-65.237086,-26.843584],[-65.237749,-26.844836],[-65.238289,-26.846806],[-65.238754,-26.848966],[-65.239322,-26.850187],[-65.239859,-26.851315],[-65.240086,-26.851817],[-65.240237,-26.852138],[-65.240795,-26.854564],[-65.240843,-26.854766],[-65.24184,-26.859009],[-65.242508,-26.858449],[-65.244723,-26.856589],[-65.245736,-26.855739],[-65.246154,-26.855388],[-65.246252,-26.855306],[-65.246416,-26.855168],[-65.246689,-26.854939],[-65.246903,-26.854759],[-65.247476,-26.854279],[-65.248145,-26.853717],[-65.248406,-26.853498]]]]}},{"type":"Feature","properties":{"nombre":"Distrito 14","id":14},"geometry":{"type":"MultiPolygon","coordinates":[[[[-65.225984,-26.839564],[-65.218694,-26.841021],[-65.219763,-26.845577],[-65.221131,-26.851553],[-65.221992,-26.855186],[-65.222911,-26.856623],[-65.222943,-26.856674],[-65.223818,-26.857641],[-65.22773,-26.861398],[-65.228071,-26.861791],[-65.228372,-26.862107],[-65.228372,-26.862107],[-65.230216,-26.865455],[-65.23148,-26.867548],[-65.231762,-26.867316],[-65.23257,-26.866663],[-65.233829,-26.865641],[-65.234655,-26.864967],[-65.234955,-26.864729],[-65.2355,-26.864287],[-65.235969,-26.863905],[-65.236309,-26.863629],[-65.236922,-26.86313],[-65.237186,-26.862917],[-65.237444,-26.862707],[-65.237918,-26.862322],[-65.238136,-26.862145],[-65.239061,-26.861359],[-65.24184,-26.859009],[-65.240863,-26.854855],[-65.240842,-26.854765],[-65.240795,-26.854564],[-65.240237,-26.852138],[-65.240086,-26.851817],[-65.239837,-26.851288],[-65.239046,-26.849595],[-65.238747,-26.848965],[-65.238542,-26.848013],[-65.238289,-26.846809],[-65.237744,-26.844839],[-65.237083,-26.843585],[-65.236758,-26.843199],[-65.235767,-26.843414],[-65.234205,-26.837961],[-65.225984,-26.839564]]]]}},{"type":"Feature","properties":{"nombre":"Distrito 16","id":16},"geometry":{"type":"MultiPolygon","coordinates":[[[[-65.179825,-26.851027],[-65.179863,-26.85127],[-65.179922,-26.851606],[-65.180152,-26.852014],[-65.180577,-26.852698],[-65.18051,-26.853842],[-65.180855,-26.854378],[-65.181363,-26.854779],[-65.181749,-26.855093],[-65.182123,-26.855391],[-65.182298,-26.855531],[-65.18281,-26.855197],[-65.18332,-26.855142],[-65.183984,-26.855318],[-65.184328,-26.855819],[-65.184246,-26.856225],[-65.184126,-26.856822],[-65.184034,-26.857272],[-65.183923,-26.85783],[-65.183971,-26.857991],[-65.184227,-26.858868],[-65.18447,-26.859136],[-65.185005,-26.859737],[-65.185114,-26.859948],[-65.185305,-26.860308],[-65.185534,-26.860753],[-65.185737,-26.861141],[-65.185915,-26.861475],[-65.186622,-26.862178],[-65.186995,-26.862799],[-65.187592,-26.863155],[-65.188379,-26.863619],[-65.189515,-26.864036],[-65.190574,-26.86429],[-65.19164,-26.864192],[-65.191902,-26.864265],[-65.192326,-26.864681],[-65.193057,-26.865327],[-65.19324,-26.865723],[-65.193109,-26.866343],[-65.193706,-26.866825],[-65.19418,-26.867058],[-65.194703,-26.867344],[-65.195084,-26.867564],[-65.195416,-26.867444],[-65.195711,-26.867647],[-65.196127,-26.868336],[-65.196059,-26.86899],[-65.195857,-26.869544],[-65.195449,-26.870201],[-65.193744,-26.871202],[-65.193336,-26.871544],[-65.193055,-26.871837],[-65.192815,-26.872245],[-65.192696,-26.8726],[-65.19291,-26.872967],[-65.193157,-26.873042],[-65.193339,-26.873299],[-65.193721,-26.873378],[-65.19418,-26.873363],[-65.194724,-26.873206],[-65.196019,-26.873307],[-65.196851,-26.873646],[-65.19753,-26.874131],[-65.197811,-26.874864],[-65.197628,-26.875623],[-65.197751,-26.876065],[-65.197972,-26.876288],[-65.198549,-26.876889],[-65.206491,-26.875193],[-65.206585,-26.87515],[-65.206662,-26.875125],[-65.207363,-26.874989],[-65.20827,-26.874815],[-65.209348,-26.874609],[-65.210238,-26.874447],[-65.211112,-26.874267],[-65.211215,-26.874215],[-65.211331,-26.874127],[-65.211437,-26.874091],[-65.212249,-26.873891],[-65.213165,-26.873718],[-65.213612,-26.873621],[-65.213805,-26.873549],[-65.213866,-26.873537],[-65.213953,-26.873529],[-65.214014,-26.873539],[-65.214384,-26.873591],[-65.214382,-26.873588],[-65.21438,-26.873436],[-65.214363,-26.873364],[-65.214317,-26.873291],[-65.2142,-26.873104],[-65.214121,-26.872968],[-65.213974,-26.872447],[-65.213881,-26.872441],[-65.213792,-26.872414],[-65.213718,-26.872352],[-65.213513,-26.871943],[-65.213507,-26.871914],[-65.21351,-26.871851],[-65.213005,-26.871191],[-65.212993,-26.871188],[-65.212975,-26.871184],[-65.212918,-26.871144],[-65.212671,-26.870748],[-65.212305,-26.870198],[-65.2123,-26.870178],[-65.212295,-26.870158],[-65.211876,-26.869883],[-65.211605,-26.869428],[-65.211419,-26.869135],[-65.211345,-26.86902],[-65.211201,-26.868781],[-65.211116,-26.868645],[-65.210941,-26.868354],[-65.210891,-26.868255],[-65.210508,-26.867637],[-65.210313,-26.867349],[-65.209756,-26.866413],[-65.209443,-26.865741],[-65.209374,-26.865566],[-65.209233,-26.865031],[-65.208979,-26.865084],[-65.208905,-26.865051],[-65.208616,-26.86457],[-65.207872,-26.863475],[-65.207441,-26.862875],[-65.207403,-26.86275],[-65.206764,-26.861834],[-65.20662,-26.861592],[-65.206376,-26.861646],[-65.206363,-26.861594],[-65.205513,-26.860375],[-65.204676,-26.85918],[-65.204284,-26.858604],[-65.204165,-26.858429],[-65.204039,-26.858243],[-65.204186,-26.858215],[-65.20439,-26.858175],[-65.20415,-26.857278],[-65.204064,-26.856963],[-65.204021,-26.856872],[-65.203888,-26.856896],[-65.20348,-26.856972],[-65.203465,-26.856959],[-65.203251,-26.857044],[-65.203098,-26.856792],[-65.20285,-26.856417],[-65.202696,-26.856184],[-65.202507,-26.855901],[-65.202023,-26.854877],[-65.201794,-26.854412],[-65.201561,-26.853593],[-65.201247,-26.852295],[-65.201242,-26.852271],[-65.201092,-26.851697],[-65.201005,-26.851365],[-65.201005,-26.851365],[-65.201005,-26.851365],[-65.200816,-26.850638],[-65.200732,-26.850281],[-65.200529,-26.84942],[-65.200432,-26.849027],[-65.200387,-26.848843],[-65.200294,-26.848448],[-65.200256,-26.848286],[-65.200154,-26.847862],[-65.199973,-26.847145],[-65.199836,-26.846616],[-65.199705,-26.846103],[-65.199632,-26.845808],[-65.199517,-26.845342],[-65.199491,-26.845244],[-65.199277,-26.845302],[-65.19919,-26.845328],[-65.199098,-26.845355],[-65.197892,-26.84572],[-65.197667,-26.845789],[-65.197665,-26.845789],[-65.196943,-26.845997],[-65.196415,-26.846149],[-65.19571,-26.846344],[-65.195499,-26.846404],[-65.195149,-26.846504],[-65.19501,-26.846545],[-65.194924,-26.846572],[-65.194639,-26.846658],[-65.194306,-26.84676],[-65.193975,-26.846864],[-65.193578,-26.846985],[-65.192965,-26.84716],[-65.191973,-26.847439],[-65.19145,-26.847593],[-65.191178,-26.84767],[-65.191063,-26.847718],[-65.190888,-26.847761],[-65.190278,-26.847936],[-65.189851,-26.848061],[-65.189413,-26.84819],[-65.188526,-26.84845],[-65.187007,-26.84889],[-65.186937,-26.848909],[-65.186937,-26.848909],[-65.186937,-26.848909],[-65.18631,-26.849088],[-65.185436,-26.849337],[-65.185434,-26.849338],[-65.184759,-26.84953],[-65.184611,-26.849572],[-65.184554,-26.849589],[-65.184488,-26.849598],[-65.184453,-26.849588],[-65.184373,-26.849578],[-65.184297,-26.849588],[-65.184021,-26.849678],[-65.183887,-26.849722],[-65.183772,-26.849758],[-65.183772,-26.849758],[-65.183615,-26.849807],[-65.183541,-26.849865],[-65.183497,-26.84988],[-65.179961,-26.850424],[-65.179727,-26.850461],[-65.179745,-26.850563],[-65.179825,-26.851027]]]]}},{"type":"Feature","properties":{"nombre":"Distrito 17","id":17},"geometry":{"type":"MultiPolygon","coordinates":[[[[-65.259493,-26.848302],[-65.259105,-26.848377],[-65.258744,-26.848446],[-65.258654,-26.848463],[-65.258517,-26.848492],[-65.258291,-26.84854],[-65.25771,-26.8487],[-65.25771,-26.8487],[-65.25771,-26.8487],[-65.257569,-26.848736],[-65.257473,-26.848755],[-65.256814,-26.848883],[-65.256587,-26.848927],[-65.256007,-26.849046],[-65.255666,-26.849138],[-65.254904,-26.84929],[-65.254491,-26.849363],[-65.254331,-26.849393],[-65.254331,-26.849393],[-65.2543,-26.849398],[-65.2543,-26.849398],[-65.254246,-26.849408],[-65.254184,-26.849419],[-65.254075,-26.849438],[-65.253739,-26.849498],[-65.253513,-26.849538],[-65.252154,-26.849824],[-65.252,-26.849871],[-65.251892,-26.849905],[-65.25181,-26.849919],[-65.251668,-26.849932],[-65.251538,-26.849945],[-65.251461,-26.84995],[-65.25135,-26.849958],[-65.251123,-26.849976],[-65.250898,-26.849992],[-65.250606,-26.850019],[-65.250606,-26.850019],[-65.250606,-26.850019],[-65.250606,-26.850019],[-65.250606,-26.850019],[-65.250606,-26.850019],[-65.250606,-26.850019],[-65.250602,-26.850019],[-65.250598,-26.85002],[-65.250542,-26.850033],[-65.250511,-26.850061],[-65.25045,-26.85007],[-65.250191,-26.850596],[-65.249959,-26.85115],[-65.249812,-26.851491],[-65.249665,-26.851843],[-65.249573,-26.852039],[-65.249498,-26.852199],[-65.24942,-26.852369],[-65.24935,-26.852514],[-65.249294,-26.852629],[-65.249194,-26.85279],[-65.249047,-26.853038],[-65.248406,-26.853498],[-65.248145,-26.853717],[-65.247476,-26.854279],[-65.246903,-26.854759],[-65.246689,-26.854939],[-65.246416,-26.855168],[-65.246252,-26.855306],[-65.246154,-26.855388],[-65.245736,-26.855739],[-65.244723,-26.856589],[-65.242508,-26.858449],[-65.24184,-26.859009],[-65.242313,-26.861576],[-65.245005,-26.863285],[-65.245182,-26.863397],[-65.245332,-26.863496],[-65.247121,-26.864671],[-65.24874,-26.864378],[-65.249422,-26.864237],[-65.264415,-26.861452],[-65.270856,-26.860234],[-65.271618,-26.860229],[-65.271551,-26.860142],[-65.2714,-26.85994],[-65.271398,-26.859838],[-65.271416,-26.859793],[-65.271244,-26.8597],[-65.270906,-26.859152],[-65.27084,-26.858872],[-65.270875,-26.858224],[-65.270694,-26.857848],[-65.270672,-26.857593],[-65.270647,-26.857245],[-65.270722,-26.856935],[-65.270858,-26.856671],[-65.271026,-26.856554],[-65.271029,-26.856324],[-65.271203,-26.856227],[-65.271234,-26.856051],[-65.271302,-26.855827],[-65.271376,-26.855575],[-65.271432,-26.855503],[-65.271385,-26.855413],[-65.271584,-26.855151],[-65.272025,-26.854922],[-65.272086,-26.854793],[-65.2722,-26.854727],[-65.272326,-26.854766],[-65.272387,-26.854766],[-65.272468,-26.854698],[-65.272572,-26.854525],[-65.272722,-26.85442],[-65.272775,-26.854467],[-65.272949,-26.854478],[-65.273046,-26.854373],[-65.273141,-26.854161],[-65.273255,-26.854077],[-65.273328,-26.853928],[-65.273391,-26.853866],[-65.273344,-26.853739],[-65.273548,-26.853295],[-65.273704,-26.853004],[-65.273722,-26.852674],[-65.273872,-26.852588],[-65.27394,-26.852433],[-65.27401,-26.852407],[-65.274041,-26.852328],[-65.274267,-26.852395],[-65.274447,-26.852359],[-65.274651,-26.851587],[-65.274764,-26.851449],[-65.274751,-26.851384],[-65.274776,-26.851335],[-65.274905,-26.851111],[-65.274823,-26.850691],[-65.274845,-26.850597],[-65.274799,-26.850487],[-65.274759,-26.850394],[-65.274544,-26.850196],[-65.274563,-26.850075],[-65.274451,-26.849891],[-65.274304,-26.849644],[-65.274112,-26.849563],[-65.274045,-26.849474],[-65.273955,-26.849359],[-65.273728,-26.849249],[-65.27353,-26.849166],[-65.273421,-26.849068],[-65.273312,-26.848812],[-65.27313,-26.848675],[-65.273066,-26.848523],[-65.27301,-26.848391],[-65.272793,-26.848325],[-65.272747,-26.848246],[-65.272811,-26.848142],[-65.272766,-26.848051],[-65.272609,-26.847967],[-65.27245,-26.8478],[-65.272337,-26.847605],[-65.271901,-26.84728],[-65.271779,-26.847159],[-65.271565,-26.847068],[-65.271272,-26.847046],[-65.27106,-26.846963],[-65.27042,-26.846616],[-65.269781,-26.846594],[-65.269616,-26.846339],[-65.269455,-26.846265],[-65.269299,-26.846042],[-65.269249,-26.846054],[-65.269151,-26.846077],[-65.268634,-26.846187],[-65.2681,-26.846299],[-65.26804,-26.846311],[-65.268029,-26.846313],[-65.268018,-26.846316],[-65.267996,-26.84632],[-65.267983,-26.846322],[-65.267712,-26.846376],[-65.2669,-26.846533],[-65.266858,-26.846542],[-65.266815,-26.84655],[-65.266815,-26.84655],[-65.266573,-26.846598],[-65.26629,-26.846652],[-65.266062,-26.846696],[-65.265317,-26.846838],[-65.265225,-26.846857],[-65.265248,-26.84695],[-65.265259,-26.847003],[-65.265287,-26.847137],[-65.261303,-26.847956],[-65.260017,-26.848199],[-65.259493,-26.848302]]]]}},{"type":"Feature","properties":{"nombre":"Distrito 18","id":18},"geometry":{"type":"MultiPolygon","coordinates":[[[[-65.242313,-26.861576],[-65.242313,-26.861576],[-65.24184,-26.859009],[-65.239061,-26.861359],[-65.238136,-26.862145],[-65.237918,-26.862322],[-65.237444,-26.862707],[-65.237186,-26.862917],[-65.236922,-26.86313],[-65.236309,-26.863629],[-65.235969,-26.863905],[-65.2355,-26.864287],[-65.234955,-26.864729],[-65.234655,-26.864967],[-65.233829,-26.865641],[-65.23257,-26.866663],[-65.231762,-26.867316],[-65.23148,-26.867548],[-65.231533,-26.867637],[-65.230804,-26.868105],[-65.230602,-26.868271],[-65.230278,-26.868899],[-65.230274,-26.869329],[-65.230273,-26.87184],[-65.23027,-26.876768],[-65.241095,-26.874757],[-65.241449,-26.874606],[-65.239854,-26.872821],[-65.243853,-26.872076],[-65.247516,-26.871393],[-65.251703,-26.870621],[-65.253496,-26.870285],[-65.255559,-26.869909],[-65.258865,-26.86928],[-65.261813,-26.86874],[-65.26425,-26.868292],[-65.268872,-26.867428],[-65.271222,-26.866991],[-65.271363,-26.866967],[-65.271386,-26.866836],[-65.271311,-26.866363],[-65.271407,-26.866213],[-65.271384,-26.865958],[-65.271288,-26.865671],[-65.271319,-26.865485],[-65.271277,-26.865178],[-65.271204,-26.865166],[-65.270834,-26.865274],[-65.270763,-26.865115],[-65.270692,-26.865032],[-65.270679,-26.864939],[-65.270794,-26.864862],[-65.270792,-26.864794],[-65.271037,-26.86472],[-65.271218,-26.864376],[-65.271444,-26.864342],[-65.271482,-26.864198],[-65.271584,-26.864144],[-65.271667,-26.863749],[-65.271719,-26.863506],[-65.271589,-26.863271],[-65.271579,-26.863157],[-65.271642,-26.863081],[-65.271866,-26.863059],[-65.272128,-26.862819],[-65.272232,-26.862605],[-65.272173,-26.86206],[-65.272201,-26.86191],[-65.27241,-26.861731],[-65.272411,-26.861393],[-65.272437,-26.8613],[-65.272433,-26.861052],[-65.272341,-26.86073],[-65.272194,-26.860524],[-65.271914,-26.860389],[-65.271792,-26.860384],[-65.27166,-26.860295],[-65.271618,-26.860229],[-65.271618,-26.860229],[-65.270856,-26.860234],[-65.264415,-26.861452],[-65.249422,-26.864237],[-65.24874,-26.864378],[-65.247121,-26.864671],[-65.245332,-26.863496],[-65.245005,-26.863285],[-65.242313,-26.861576]]]]}},{"type":"Feature","properties":{"nombre":"Distrito 20","id":20},"geometry":{"type":"MultiPolygon","coordinates":[[[[-65.216599,-26.876698],[-65.216553,-26.876633],[-65.216399,-26.876418],[-65.216396,-26.876413],[-65.216338,-26.876329],[-65.215872,-26.87565],[-65.215792,-26.875533],[-65.215788,-26.875527],[-65.215625,-26.875269],[-65.215625,-26.875268],[-65.215542,-26.875135],[-65.215508,-26.875078],[-65.215508,-26.875078],[-65.215463,-26.875001],[-65.215422,-26.874882],[-65.215397,-26.874818],[-65.215302,-26.87438],[-65.215236,-26.874006],[-65.215185,-26.873764],[-65.215143,-26.873536],[-65.214801,-26.873586],[-65.214597,-26.873597],[-65.21439,-26.873588],[-65.214382,-26.873588],[-65.214384,-26.873591],[-65.214014,-26.873539],[-65.213953,-26.873529],[-65.213866,-26.873537],[-65.213805,-26.873549],[-65.213612,-26.873621],[-65.213165,-26.873718],[-65.212249,-26.873891],[-65.211437,-26.874091],[-65.211331,-26.874127],[-65.211215,-26.874215],[-65.211112,-26.874267],[-65.210238,-26.874447],[-65.209348,-26.874609],[-65.20827,-26.874815],[-65.207363,-26.874989],[-65.206662,-26.875125],[-65.206585,-26.87515],[-65.206491,-26.875193],[-65.198549,-26.876889],[-65.198832,-26.877187],[-65.19893,-26.877775],[-65.198699,-26.878433],[-65.198357,-26.879138],[-65.198432,-26.879993],[-65.198508,-26.880801],[-65.198734,-26.8812],[-65.199249,-26.881619],[-65.19972,-26.881675],[-65.200177,-26.881562],[-65.200868,-26.881644],[-65.200907,-26.882201],[-65.201156,-26.882688],[-65.201109,-26.883336],[-65.200796,-26.883801],[-65.201238,-26.884482],[-65.201541,-26.884944],[-65.202571,-26.885365],[-65.203072,-26.885451],[-65.203574,-26.885856],[-65.203904,-26.886429],[-65.203834,-26.88678],[-65.203214,-26.887257],[-65.202406,-26.887339],[-65.201784,-26.887618],[-65.201527,-26.888027],[-65.201538,-26.888697],[-65.201542,-26.889114],[-65.201291,-26.889607],[-65.201374,-26.890421],[-65.201951,-26.890917],[-65.202526,-26.891077],[-65.20302,-26.890948],[-65.203906,-26.890862],[-65.20449,-26.890576],[-65.204803,-26.890396],[-65.205019,-26.890364],[-65.205462,-26.890599],[-65.205552,-26.890835],[-65.205703,-26.891262],[-65.205582,-26.89163],[-65.205251,-26.891997],[-65.205039,-26.892225],[-65.204577,-26.892566],[-65.204448,-26.892981],[-65.204604,-26.893314],[-65.204835,-26.893629],[-65.205854,-26.893848],[-65.206514,-26.893709],[-65.207383,-26.893506],[-65.208151,-26.892526],[-65.208428,-26.892437],[-65.208782,-26.89233],[-65.209528,-26.892479],[-65.20965,-26.892585],[-65.20994,-26.89284],[-65.210136,-26.893016],[-65.210407,-26.893259],[-65.210569,-26.893828],[-65.21062,-26.894013],[-65.210619,-26.894401],[-65.210619,-26.895003],[-65.210477,-26.895329],[-65.20932,-26.895785],[-65.208086,-26.895585],[-65.207446,-26.895145],[-65.206898,-26.895093],[-65.206435,-26.895412],[-65.206199,-26.895898],[-65.206093,-26.896299],[-65.206383,-26.896939],[-65.206574,-26.897358],[-65.20666,-26.897547],[-65.206758,-26.897729],[-65.206984,-26.898182],[-65.20702,-26.898372],[-65.207073,-26.898653],[-65.207005,-26.899137],[-65.207325,-26.899447],[-65.207733,-26.899842],[-65.208051,-26.900151],[-65.208395,-26.900485],[-65.208547,-26.900607],[-65.208814,-26.900814],[-65.209121,-26.901326],[-65.20917,-26.901522],[-65.209451,-26.902622],[-65.209631,-26.902934],[-65.209879,-26.903034],[-65.210044,-26.9031],[-65.210251,-26.903182],[-65.210641,-26.903342],[-65.210659,-26.90335],[-65.210691,-26.90336],[-65.210736,-26.903377],[-65.210778,-26.903395],[-65.21081,-26.903407],[-65.210846,-26.903422],[-65.210909,-26.903447],[-65.210988,-26.903475],[-65.211106,-26.903529],[-65.211248,-26.903576],[-65.211286,-26.903808],[-65.211381,-26.904549],[-65.21139,-26.90476],[-65.211429,-26.90569],[-65.211516,-26.906056],[-65.211553,-26.906221],[-65.211584,-26.906363],[-65.211615,-26.906525],[-65.211649,-26.906645],[-65.211649,-26.906816],[-65.21163,-26.907013],[-65.211628,-26.907254],[-65.211616,-26.907488],[-65.211502,-26.907836],[-65.211392,-26.908149],[-65.211268,-26.908522],[-65.211253,-26.908565],[-65.211248,-26.90867],[-65.211243,-26.908774],[-65.211239,-26.90888],[-65.211235,-26.90898],[-65.211217,-26.909452],[-65.21132,-26.909908],[-65.211729,-26.91034],[-65.212589,-26.910271],[-65.213142,-26.909735],[-65.213712,-26.909003],[-65.214174,-26.909147],[-65.214379,-26.908673],[-65.214544,-26.90829],[-65.214539,-26.907942],[-65.214536,-26.907531],[-65.214107,-26.907095],[-65.214049,-26.906865],[-65.214026,-26.906744],[-65.214348,-26.906396],[-65.214456,-26.906278],[-65.214617,-26.906105],[-65.21479,-26.905915],[-65.214943,-26.905749],[-65.215072,-26.905605],[-65.215285,-26.905372],[-65.215397,-26.905249],[-65.21551,-26.905125],[-65.215579,-26.905056],[-65.21565,-26.904999],[-65.215729,-26.904937],[-65.215858,-26.904834],[-65.215975,-26.904741],[-65.216053,-26.90468],[-65.216078,-26.904658],[-65.216116,-26.90463],[-65.21619,-26.904572],[-65.216307,-26.904487],[-65.216533,-26.904294],[-65.216766,-26.904074],[-65.216932,-26.90387],[-65.217589,-26.903224],[-65.219539,-26.901674],[-65.2214,-26.900135],[-65.222378,-26.899027],[-65.222983,-26.898218],[-65.223505,-26.897316],[-65.224445,-26.895938],[-65.225391,-26.894526],[-65.226807,-26.89227],[-65.228436,-26.889692],[-65.228758,-26.889296],[-65.229131,-26.888693],[-65.229369,-26.888245],[-65.230213,-26.886993],[-65.230477,-26.886258],[-65.230638,-26.885569],[-65.230696,-26.884788],[-65.230554,-26.882693],[-65.230428,-26.880115],[-65.23027,-26.876768],[-65.230267,-26.874718],[-65.224233,-26.875851],[-65.224177,-26.875862],[-65.216999,-26.877223],[-65.216953,-26.877233],[-65.216599,-26.876698]]]]}},{"type":"Feature","properties":{"nombre":"Distrito 15","id":15},"geometry":{"type":"MultiPolygon","coordinates":[[[[-65.200294,-26.848448],[-65.200432,-26.849027],[-65.200529,-26.84942],[-65.200732,-26.850281],[-65.201005,-26.851365],[-65.201005,-26.851365],[-65.201005,-26.851365],[-65.201092,-26.851697],[-65.201242,-26.852271],[-65.201247,-26.852295],[-65.201561,-26.853593],[-65.201794,-26.854412],[-65.202023,-26.854877],[-65.202507,-26.855901],[-65.202696,-26.856184],[-65.20285,-26.856417],[-65.203098,-26.856792],[-65.203251,-26.857044],[-65.203465,-26.856959],[-65.20348,-26.856972],[-65.203888,-26.856896],[-65.204021,-26.856872],[-65.204064,-26.856963],[-65.20415,-26.857278],[-65.20434,-26.857983],[-65.20439,-26.858175],[-65.204186,-26.858215],[-65.204039,-26.858243],[-65.204165,-26.858429],[-65.204284,-26.858604],[-65.204676,-26.85918],[-65.205513,-26.860375],[-65.206363,-26.861594],[-65.206376,-26.861646],[-65.20662,-26.861592],[-65.206764,-26.861834],[-65.207403,-26.86275],[-65.207441,-26.862875],[-65.207872,-26.863475],[-65.208616,-26.86457],[-65.208905,-26.865051],[-65.208979,-26.865084],[-65.209233,-26.865031],[-65.209374,-26.865566],[-65.209443,-26.865741],[-65.209756,-26.866413],[-65.210313,-26.867349],[-65.210508,-26.867637],[-65.210891,-26.868255],[-65.210921,-26.868314],[-65.210941,-26.868354],[-65.214033,-26.867789],[-65.214847,-26.867639],[-65.215578,-26.867501],[-65.218044,-26.867034],[-65.22124,-26.866458],[-65.221025,-26.865557],[-65.220926,-26.865246],[-65.220793,-26.86484],[-65.220789,-26.864828],[-65.220396,-26.8636],[-65.222659,-26.863162],[-65.228372,-26.862107],[-65.228071,-26.861791],[-65.227448,-26.861136],[-65.223848,-26.857726],[-65.222996,-26.856755],[-65.222943,-26.856674],[-65.222911,-26.856623],[-65.221954,-26.855144],[-65.221131,-26.851553],[-65.219763,-26.845577],[-65.218694,-26.841021],[-65.200304,-26.844694],[-65.20019,-26.844865],[-65.200073,-26.845072],[-65.20001,-26.845091],[-65.199491,-26.845244],[-65.199517,-26.845342],[-65.199632,-26.845808],[-65.199705,-26.846103],[-65.199836,-26.846616],[-65.199973,-26.847145],[-65.200154,-26.847862],[-65.200256,-26.848286],[-65.200294,-26.848448]]]]}},{"type":"Feature","properties":{"nombre":"Distrito 19","id":19},"geometry":{"type":"MultiPolygon","coordinates":[[[[-65.220396,-26.8636],[-65.220396,-26.8636],[-65.220789,-26.864828],[-65.220793,-26.86484],[-65.220926,-26.865246],[-65.221025,-26.865557],[-65.22124,-26.866458],[-65.22124,-26.866458],[-65.215578,-26.867501],[-65.214847,-26.867639],[-65.214033,-26.867789],[-65.210941,-26.868354],[-65.210941,-26.868354],[-65.210941,-26.868354],[-65.211419,-26.869135],[-65.211605,-26.869428],[-65.211876,-26.869883],[-65.212295,-26.870158],[-65.212295,-26.870158],[-65.212295,-26.870158],[-65.212295,-26.870158],[-65.2123,-26.870178],[-65.212305,-26.870198],[-65.212305,-26.870198],[-65.212671,-26.870748],[-65.212918,-26.871144],[-65.212975,-26.871184],[-65.212975,-26.871184],[-65.213005,-26.871191],[-65.213005,-26.871191],[-65.21351,-26.871851],[-65.21351,-26.871851],[-65.21351,-26.871851],[-65.213507,-26.871914],[-65.213513,-26.871943],[-65.213718,-26.872352],[-65.213792,-26.872414],[-65.213881,-26.872441],[-65.213974,-26.872447],[-65.213974,-26.872447],[-65.213974,-26.872447],[-65.214121,-26.872968],[-65.214121,-26.872968],[-65.214363,-26.873364],[-65.214363,-26.873364],[-65.214363,-26.873364],[-65.214363,-26.873364],[-65.214363,-26.873364],[-65.21438,-26.873436],[-65.214382,-26.873588],[-65.214382,-26.873588],[-65.21439,-26.873588],[-65.214597,-26.873597],[-65.214801,-26.873586],[-65.215143,-26.873536],[-65.215143,-26.873536],[-65.215143,-26.873536],[-65.215397,-26.874818],[-65.215422,-26.874882],[-65.215463,-26.875001],[-65.215463,-26.875001],[-65.215463,-26.875001],[-65.216553,-26.876633],[-65.216599,-26.876698],[-65.216953,-26.877233],[-65.216999,-26.877223],[-65.224177,-26.875862],[-65.224233,-26.875851],[-65.230267,-26.874718],[-65.230267,-26.874718],[-65.230267,-26.874718],[-65.230273,-26.87184],[-65.230274,-26.869329],[-65.230278,-26.868899],[-65.230602,-26.868271],[-65.230804,-26.868105],[-65.231533,-26.867637],[-65.231533,-26.867637],[-65.23148,-26.867548],[-65.230216,-26.865455],[-65.228372,-26.862107],[-65.228372,-26.862107],[-65.220396,-26.8636]]]]}}]}